{
    "links": {
        "self": "http://www.neowsapp.com/rest/v1/neo/3311866?api_key=iIulBulltgU6a56xZRHN4H3l9WmuAYTsLGpBGhQ2"
    },
    "id": "3311866",
    "neo_reference_id": "3311866",
    "name": "(2006 AS3)",
    "designation": "2006 AS3",
    "nasa_jpl_url": "http://ssd.jpl.nasa.gov/sbdb.cgi?sstr=3311866",
    "absolute_magnitude_h": 24.7,
    "estimated_diameter": {
        "kilometers": {
            "estimated_diameter_min": 0.0305179233,
            "estimated_diameter_max": 0.0682401509
        },
        "meters": {
            "estimated_diameter_min": 30.5179232594,
            "estimated_diameter_max": 68.2401509401
        },
        "miles": {
            "estimated_diameter_min": 0.0189629525,
            "estimated_diameter_max": 0.0424024508
        },
        "feet": {
            "estimated_diameter_min": 100.1244233463,
            "estimated_diameter_max": 223.8850168104
        }
    },
    "is_potentially_hazardous_asteroid": false,
    "close_approach_data": [
        {
            "close_approach_date": "2006-01-17",
            "close_approach_date_full": "2006-Jan-17 15:36",
            "epoch_date_close_approach": 1137512160000,
            "relative_velocity": {
                "kilometers_per_second": "10.5669327327",
                "kilometers_per_hour": "38040.9578376149",
                "miles_per_hour": "23637.1718297113"
            },
            "miss_distance": {
                "astronomical": "0.0434720249",
                "lunar": "16.9106176861",
                "kilometers": "6503322.329626963",
                "miles": "4040977.1130315694"
            },
            "orbiting_body": "Earth"
        },
        {
            "close_approach_date": "2006-06-26",
            "close_approach_date_full": "2006-Jun-26 04:42",
            "epoch_date_close_approach": 1151296920000,
            "relative_velocity": {
                "kilometers_per_second": "8.2134573402",
                "kilometers_per_hour": "29568.4464246055",
                "miles_per_hour": "18372.6827242222"
            },
            "miss_distance": {
                "astronomical": "0.3891075329",
                "lunar": "151.3628302981",
                "kilometers": "58209658.122794923",
                "miles": "36169804.3413910174"
            },
            "orbiting_body": "Earth"
        },
        {
            "close_approach_date": "2009-06-05",
            "close_approach_date_full": "2009-Jun-05 23:53",
            "epoch_date_close_approach": 1244245980000,
            "relative_velocity": {
                "kilometers_per_second": "14.4268954399",
                "kilometers_per_hour": "51936.8235835964",
                "miles_per_hour": "32271.5224094852"
            },
            "miss_distance": {
                "astronomical": "0.2516832562",
                "lunar": "97.9047866618",
                "kilometers": "37651279.042184294",
                "miles": "23395419.9367754972"
            },
            "orbiting_body": "Earth"
        }
    ],
    "orbital_data": {
        "orbit_id": "8",
        "orbit_determination_date": "2017-04-06 09:09:27",
        "first_observation_date": "2006-01-07",
        "last_observation_date": "2006-01-10",
        "data_arc_in_days": 3,
        "observations_used": 38,
        "orbit_uncertainty": "8",
        "minimum_orbit_intersection": ".0429328",
        "jupiter_tisserand_invariant": "4.823",
        "epoch_osculation": "2453743.5",
        "eccentricity": ".3293346195536899",
        "semi_major_axis": "1.336964236358828",
        "inclination": "13.41633919741897",
        "ascending_node_longitude": "289.2888414308046",
        "orbital_period": "564.648413199095",
        "perihelion_distance": ".8966556282207037",
        "perihelion_argument": "245.3549556562132",
        "aphelion_distance": "1.777272844496952",
        "perihelion_time": "2453799.945351471816",
        "mean_anomaly": "324.0124260427368",
        "mean_motion": ".6375648838900819",
        "equinox": "J2000",
        "orbit_class": {
            "orbit_class_type": "APO",
            "orbit_class_description": "Near-Earth asteroid orbits which cross the Earth’s orbit similar to that of 1862 Apollo",
            "orbit_class_range": "a (semi-major axis) > 1.0 AU; q (perihelion) < 1.017 AU"
        }
    },
    "is_sentry_object": false
}